STARLINK-31432          
1 59932U 24106L   26204.57708339 -.00026293  00000+0 -94959-3 0  9999
2 59932  42.9987 285.2198 0001286 276.4012  83.6693 15.27570695121290
STARLINK-31853          
1 59933U 24106M   26204.50399166 -.00001171  00000+0 -33036-4 0  9995
2 59933  42.9986 285.5327 0001560 276.2277  83.8396 15.27573842121292
STARLINK-31971          
1 59934U 24106N   26204.53400869 -.00002173  00000+0 -69483-4 0  9990
2 59934  43.0029 282.1465 0000855 268.5327  91.5427 15.27568401121213
STARLINK-31962          
1 59936U 24106Q   26204.52583965 -.00002397  00000+0 -77638-4 0  9999
2 59936  43.0018 285.6942 0001297 277.3584  82.7120 15.27567242121297
STARLINK-31879          
1 59937U 24106R   26204.53611418 -.00000820  00000+0 -20284-4 0  9990
2 59937  43.0012 285.7705 0000897 273.6012  86.4737 15.27572419121343
STARLINK-31876          
1 59938U 24106S   26204.56166785 -.00003086  00000+0 -10271-3 0  9997
2 59938  43.0008 285.1073 0001569 273.9738  86.0934 15.27567539121315
STARLINK-31955          
1 59939U 24106T   26204.21417368 -.00000891  00000+0 -22874-4 0  9990
2 59939  43.0004 286.7902 0000812 285.1463  74.9299 15.27575525121291
STARLINK-31946          
1 59940U 24106U   26204.53225589 -.00000736  00000+0 -17240-4 0  9998
2 59940  42.9989 285.7406 0000592 257.8841 102.1944 15.27576724111924
STARLINK-31948          
1 59941U 24106V   26204.52630293 -.00000888  00000+0 -22753-4 0  9993
2 59941  43.0008 282.1362 0000914 272.3840  87.6907 15.27571382121337
STARLINK-31900          
1 59942U 24106W   26204.60906152 -.00009229  00000+0 -32601-3 0  9993
2 59942  43.0025 284.6018 0001430 261.1192  98.9498 15.27605778121317
STARLINK-31973          
1 59943U 24106X   26204.58351379 -.00002745  00000+0 -90272-4 0  9991
2 59943  43.0014 285.2735 0001417 269.1696  90.8993 15.27575181121305
STARLINK-31966          
1 59944U 24106Y   26204.51425736 -.00023130  00000+0 -83087-3 0  9990
2 59944  42.9965 285.6054 0000965 232.9356 127.1408 15.27687972121346
STARLINK-11145 [DTC]    
1 59945U 24107A   26203.99925182 -.00001010  00000+0 -34905-5 0  9993
2 59945  53.1622 304.5478 0000428   5.2146 354.8876 15.69704293123391
STARLINK-11113 [DTC]    
1 59947U 24107C   26204.00405737 -.00000881  00000+0 -24191-5 0  9998
2 59947  53.1593 303.8328 0000997  79.0432 281.0699 15.69702335123405
STARLINK-11123 [DTC]    
1 59948U 24107D   26204.56247653 -.00001152  00000+0 -46507-5 0  9998
2 59948  53.1579 301.6586 0001209  85.6626 274.4530 15.69693872123547
STARLINK-11138 [DTC]    
1 59949U 24107E   26204.28816937  .00000177  00000+0  63185-5 0  9990
2 59949  53.1598 302.7791 0001068  66.5342 293.5788 15.69694220123506
STARLINK-11130 [DTC]    
1 59950U 24107F   26203.98455204 -.00001720  00000+0 -93111-5 0  9993
2 59950  53.1551 304.4470 0003694  75.3142 284.8285 15.69695787123394
STARLINK-11124 [DTC]    
1 59952U 24107H   26204.54775607 -.00002382  00000+0 -14807-4 0  9999
2 59952  53.1578 301.5587 0001513  97.2830 262.8360 15.69702424123552
STARLINK-11133 [DTC]    
1 59954U 24107K   26204.27835865 -.00001301  00000+0 -58834-5 0  9993
2 59954  53.1574 302.7161 0001190  74.4768 285.6381 15.69702066123445
STARLINK-11144 [DTC]    
1 59955U 24107L   26203.63676305 -.00002521  00000+0 -15967-4 0  9999
2 59955  53.1584 305.8279 0001009  83.6890 276.4243 15.69693760123409
STARLINK-11134 [DTC]    
1 59956U 24107M   26204.26854431  .00000118  00000+0  58196-5 0  9998
2 59956  53.1609 302.6496 0000125  81.6365 278.4668 15.69698172123378
STARLINK-11142 [DTC]    
1 59957U 24107N   26204.00895719 -.00001393  00000+0 -66564-5 0  9991
2 59957  53.1600 303.8753 0000381   5.6009 354.5013 15.69704777123418
STARLINK-31995          
1 59958U 24107P   26204.28505852  .00000225  00000+0  17805-4 0  9992
2 59958  53.1604 154.5047 0001390 108.5068 251.6086 15.34393742119374
STARLINK-31989          
1 59959U 24107Q   26204.58759402 -.00003021  00000+0 -78347-4 0  9995
2 59959  53.1592 152.8411 0001191  88.3064 271.8075 15.34390906120628
STARLINK-31856          
1 59960U 24107R   26204.25562829 -.00001404  00000+0 -30454-4 0  9996
2 59960  53.1609 154.3263 0001451  91.7821 268.3348 15.34374687120575
STARLINK-31993          
1 59961U 24107S   26204.14006485  .00003153  00000+0  10441-3 0  9990
2 59961  53.1592 155.0210 0001505  88.3148 271.8027 15.34399114120497
STARLINK-31980          
1 59962U 24107T   26204.58339338 -.00001260  00000+0 -26174-4 0  9995
2 59962  53.1608 152.8098 0001226  96.5555 263.5587 15.34384893120620
STARLINK-31991          
1 59963U 24107U   26204.28295403  .00000393  00000+0  22773-4 0  9992
2 59963  53.1610 154.4914 0001363  94.7330 265.3828 15.34396499120579
STARLINK-31979          
1 59964U 24107V   26204.13374789  .00000020  00000+0  11734-4 0  9994
2 59964  53.1589 154.9794 0001430  92.6947 267.4219 15.34391124120502
PREFIRE-1               
1 59965U 24108A   26204.38166370  .00004906  00000+0  20514-3 0  9990
2 59965  97.5350 359.3392 0012745 112.6248 247.6339 15.24001909118108
