OBJECT_NAME,OBJECT_ID,EPOCH,MEAN_MOTION,ECCENTRICITY,INCLINATION,RA_OF_ASC_NODE,ARG_OF_PERICENTER,MEAN_ANOMALY,EPHEMERIS_TYPE,CLASSIFICATION_TYPE,NORAD_CAT_ID,ELEMENT_SET_NO,REV_AT_EPOCH,BSTAR,MEAN_MOTION_DOT,MEAN_MOTION_DDOT
STARLINK-31432,2024-106L,2026-07-23T13:51:00.004896,15.27570695,.00012862,42.9987,285.2198,276.4012,83.6693,0,U,59932,999,12129,-.9495925E-3,-.26293E-3,0
STARLINK-31853,2024-106M,2026-07-23T12:05:44.879424,15.27573842,.00015606,42.9986,285.5327,276.2277,83.8396,0,U,59933,999,12129,-.33036083E-4,-.1171E-4,0
STARLINK-31971,2024-106N,2026-07-23T12:48:58.350816,15.27568401,.00008558,43.0029,282.1465,268.5327,91.5427,0,U,59934,999,12121,-.69482789E-4,-.2173E-4,0
STARLINK-31962,2024-106Q,2026-07-23T12:37:12.545760,15.27567242,.00012971,43.0018,285.6942,277.3584,82.7120,0,U,59936,999,12129,-.77638231E-4,-.2397E-4,0
STARLINK-31879,2024-106R,2026-07-23T12:52:00.265152,15.27572419,.00008974,43.0012,285.7705,273.6012,86.4737,0,U,59937,999,12134,-.20283603E-4,-.82E-5,0
STARLINK-31876,2024-106S,2026-07-23T13:28:48.102240,15.27567539,.00015691,43.0008,285.1073,273.9738,86.0934,0,U,59938,999,12131,-.10270889E-3,-.3086E-4,0
STARLINK-31955,2024-106T,2026-07-23T05:08:24.605952,15.27575525,.00008121,43.0004,286.7902,285.1463,74.9299,0,U,59939,999,12129,-.22873511E-4,-.891E-5,0
STARLINK-31946,2024-106U,2026-07-23T12:46:26.908896,15.27576724,.00005923,42.9989,285.7406,257.8841,102.1944,0,U,59940,999,11192,-.17239777E-4,-.736E-5,0
STARLINK-31948,2024-106V,2026-07-23T12:37:52.573152,15.27571382,.00009143,43.0008,282.1362,272.3840,87.6907,0,U,59941,999,12133,-.22752775E-4,-.888E-5,0
STARLINK-31900,2024-106W,2026-07-23T14:37:02.915328,15.27605778,.00014301,43.0025,284.6018,261.1192,98.9498,0,U,59942,999,12131,-.32601427E-3,-.9229E-4,0
STARLINK-31973,2024-106X,2026-07-23T14:00:15.591456,15.27575181,.0001417,43.0014,285.2735,269.1696,90.8993,0,U,59943,999,12130,-.90272134E-4,-.2745E-4,0
STARLINK-31966,2024-106Y,2026-07-23T12:20:31.835904,15.27687972,.00009651,42.9965,285.6054,232.9356,127.1408,0,U,59944,999,12134,-.83087198E-3,-.2313E-3,0
STARLINK-11145 [DTC],2024-107A,2026-07-22T23:58:55.357248,15.69704293,.00004285,53.1622,304.5478,5.2146,354.8876,0,U,59945,999,12339,-.3490509E-5,-.101E-4,0
STARLINK-11113 [DTC],2024-107C,2026-07-23T00:05:50.556768,15.69702335,.00009979,53.1593,303.8328,79.0432,281.0699,0,U,59947,999,12340,-.2419107E-5,-.881E-5,0
STARLINK-11123 [DTC],2024-107D,2026-07-23T13:29:57.972192,15.69693872,.00012091,53.1579,301.6586,85.6626,274.4530,0,U,59948,999,12354,-.4650665E-5,-.1152E-4,0
STARLINK-11138 [DTC],2024-107E,2026-07-23T06:54:57.833568,15.69694220,.00010688,53.1598,302.7791,66.5342,293.5788,0,U,59949,999,12350,.6318471E-5,.177E-5,0
STARLINK-11130 [DTC],2024-107F,2026-07-22T23:37:45.296256,15.69695787,.00036949,53.1551,304.4470,75.3142,284.8285,0,U,59950,999,12339,-.9311066E-5,-.172E-4,0
STARLINK-11124 [DTC],2024-107H,2026-07-23T13:08:46.124448,15.69702424,.0001513,53.1578,301.5587,97.2830,262.8360,0,U,59952,999,12355,-.14807079E-4,-.2382E-4,0
STARLINK-11133 [DTC],2024-107K,2026-07-23T06:40:50.187360,15.69702066,.00011905,53.1574,302.7161,74.4768,285.6381,0,U,59954,999,12344,-.5883414E-5,-.1301E-4,0
STARLINK-11144 [DTC],2024-107L,2026-07-22T15:16:56.327520,15.69693760,.00010092,53.1584,305.8279,83.6890,276.4243,0,U,59955,999,12340,-.15966616E-4,-.2521E-4,0
STARLINK-11134 [DTC],2024-107M,2026-07-23T06:26:42.228384,15.69698172,.00001252,53.1609,302.6496,81.6365,278.4668,0,U,59956,999,12337,.5819619E-5,.118E-5,0
STARLINK-11142 [DTC],2024-107N,2026-07-23T00:12:53.901216,15.69704777,.00003812,53.1600,303.8753,5.6009,354.5013,0,U,59957,999,12341,-.665641E-5,-.1393E-4,0
STARLINK-31995,2024-107P,2026-07-23T06:50:29.056128,15.34393742,.00013903,53.1604,154.5047,108.5068,251.6086,0,U,59958,999,11937,.17804876E-4,.225E-5,0
STARLINK-31989,2024-107Q,2026-07-23T14:06:08.123328,15.34390906,.00011917,53.1592,152.8411,88.3064,271.8075,0,U,59959,999,12062,-.78347241E-4,-.3021E-4,0
STARLINK-31856,2024-107R,2026-07-23T06:08:06.284256,15.34374687,.00014519,53.1609,154.3263,91.7821,268.3348,0,U,59960,999,12057,-.30454088E-4,-.1404E-4,0
STARLINK-31993,2024-107S,2026-07-23T03:21:41.603040,15.34399114,.00015052,53.1592,155.0210,88.3148,271.8027,0,U,59961,999,12049,.10441018E-3,.3153E-4,0
STARLINK-31980,2024-107T,2026-07-23T14:00:05.188032,15.34384893,.00012263,53.1608,152.8098,96.5555,263.5587,0,U,59962,999,12062,-.26174144E-4,-.126E-4,0
STARLINK-31991,2024-107U,2026-07-23T06:47:27.228192,15.34396499,.00013639,53.1610,154.4914,94.7330,265.3828,0,U,59963,999,12057,.2277276E-4,.393E-5,0
STARLINK-31979,2024-107V,2026-07-23T03:12:35.817696,15.34391124,.00014304,53.1589,154.9794,92.6947,267.4219,0,U,59964,999,12050,.117342E-4,.2E-6,0
PREFIRE-1,2024-108A,2026-07-23T09:09:35.743680,15.24001909,.00127452,97.5350,359.3392,112.6248,247.6339,0,U,59965,999,11810,.20514163E-3,.4906E-4,0
